GLOBALSTAR M035         
1 25851U 99037A   24228.60767942 -.00000022  00000+0  15786-2 0  9991
2 25851  51.9984  16.4319 0013353 203.7428 257.1251 11.04531674 62490
GLOBALSTAR M032         
1 25852U 99037B   24228.66633933 -.00000045  00000+0  68760-3 0  9996
2 25852  51.9914 222.5793 0010254   9.7721 350.3277 11.19059718100630
GLOBALSTAR M051         
1 25853U 99037C   24228.54723944 -.00000069  00000+0  66179-4 0  9995
2 25853  51.9796  58.2058 0002018  48.2508 311.8475 11.42198322 97466
GLOBALSTAR M030         
1 25854U 99037D   24228.78881035 -.00000030  00000+0  95974-3 0  9990
2 25854  51.9843 243.1516 0003764 218.9123 141.1423 11.55099880114855
GLOBALSTAR M048         
1 25872U 99041A   24228.63966620 -.00000059  00000+0  30247-3 0  9996
2 25872  51.9406 341.2065 0013216  18.3782 358.5075 11.33847934 90324
GLOBALSTAR M026         
1 25873U 99041B   24228.47366806 -.00000117  00000+0 -19519-2 0  9993
2 25873  51.9998 137.9057 0001639  74.7029  96.8497 11.06834314114839
GLOBALSTAR M043         
1 25874U 99041C   24228.53145301 -.00000006  00000+0  18442-2 0  9996
2 25874  51.9401  76.9227 0012835 145.8023 247.7962 11.25686905 88458
GLOBALSTAR M028         
1 25875U 99041D   24228.76068845 -.00000047  00000+0  34940-3 0  9996
2 25875  51.9640  23.7776 0064172 127.7963 232.8732 12.50561619151999
